ONEWEB-0446             
1 51640U 22012U   25360.60275530 -.00000651  00000+0 -19026-2 0  9990
2 51640  87.8797  70.6953 0001605 107.5010 252.6293 13.10375433186723
ONEWEB-0448             
1 51641U 22012V   25360.76043316 -.00000528  00000+0 -15485-2 0  9991
2 51641  87.8794  70.6627 0001758 102.7230 257.4094 13.10371643186719
ONEWEB-0449             
1 51642U 22012W   25360.68904662 -.00000788  00000+0 -22939-2 0  9993
2 51642  87.8798  70.6504 0002137 110.7631 249.3726 13.10371814186716
ONEWEB-0451             
1 51643U 22012X   25360.60593656  .00000001  00000+0 -31561-4 0  9993
2 51643  87.9105  40.1431 0001919  99.3130 260.8218 13.17647977190930
ONEWEB-0452             
1 51644U 22012Y   25360.83203490 -.00001916  00000+0 -49680-2 0  9999
2 51644  87.9101  40.1510 0002160  96.9436 263.1941 13.17660869190974
ONEWEB-0456             
1 51646U 22012AA  25360.62265139 -.00000641  00000+0 -18719-2 0  9999
2 51646  87.8814  70.6346 0001674  97.0527 263.0790 13.10375306186746
ONEWEB-0457             
1 51647U 22012AB  25360.75213803 -.00000238  00000+0 -71926-3 0  9997
2 51647  87.8793  70.6530 0001719 119.2700 240.8599 13.10369190186764
ONEWEB-0458             
1 51648U 22012AC  25360.46827749 -.00000609  00000+0 -17817-2 0  9996
2 51648  87.8809  70.6848 0001920 103.5921 256.5420 13.10374615186686
